[{"OBJECT_NAME":"JACK-002","OBJECT_ID":"2026-067B","EPOCH":"2026-04-24T08:14:15.376128","MEAN_MOTION":15.18691837,"ECCENTRICITY":0.00041025,"INCLINATION":97.4529,"RA_OF_ASC_NODE":73.6427,"ARG_OF_PERICENTER":98.1475,"MEAN_ANOMALY":262.0225,"EPHEMERIS_TYPE":0,"CLASSIFICATION_TYPE":"U","NORAD_CAT_ID":68417,"ELEMENT_SET_NO":999,"REV_AT_EPOCH":377,"BSTAR":0.00026749337,"MEAN_MOTION_DOT":5.481e-5,"MEAN_MOTION_DDOT":0},{"OBJECT_NAME":"OPTISAT","OBJECT_ID":"2026-067C","EPOCH":"2026-04-24T08:16:11.895168","MEAN_MOTION":15.18553779,"ECCENTRICITY":0.00041139,"INCLINATION":97.4547,"RA_OF_ASC_NODE":73.6471,"ARG_OF_PERICENTER":108.3662,"MEAN_ANOMALY":251.802,"EPHEMERIS_TYPE":0,"CLASSIFICATION_TYPE":"U","NORAD_CAT_ID":68418,"ELEMENT_SET_NO":999,"REV_AT_EPOCH":377,"BSTAR":0.00010454091,"MEAN_MOTION_DOT":2.092e-5,"MEAN_MOTION_DDOT":0},{"OBJECT_NAME":"FEMTO-1","OBJECT_ID":"2026-067D","EPOCH":"2026-04-24T08:15:54.591840","MEAN_MOTION":15.18569095,"ECCENTRICITY":0.00035838,"INCLINATION":97.4504,"RA_OF_ASC_NODE":73.6338,"ARG_OF_PERICENTER":90.9688,"MEAN_ANOMALY":269.1957,"EPHEMERIS_TYPE":0,"CLASSIFICATION_TYPE":"U","NORAD_CAT_ID":68419,"ELEMENT_SET_NO":999,"REV_AT_EPOCH":377,"BSTAR":0.00012272558,"MEAN_MOTION_DOT":2.469e-5,"MEAN_MOTION_DDOT":0},{"OBJECT_NAME":"ERMIS-2","OBJECT_ID":"2026-067E","EPOCH":"2026-04-24T08:14:38.159808","MEAN_MOTION":15.18740953,"ECCENTRICITY":0.00036712,"INCLINATION":97.445,"RA_OF_ASC_NODE":73.6193,"ARG_OF_PERICENTER":83.5405,"MEAN_ANOMALY":276.6247,"EPHEMERIS_TYPE":0,"CLASSIFICATION_TYPE":"U","NORAD_CAT_ID":68420,"ELEMENT_SET_NO":999,"REV_AT_EPOCH":377,"BSTAR":0.00039296834,"MEAN_MOTION_DOT":8.098e-5,"MEAN_MOTION_DDOT":0},{"OBJECT_NAME":"TRANSPORTER-16 OBJECT F","OBJECT_ID":"2026-067F","EPOCH":"2026-04-24T08:20:01.295808","MEAN_MOTION":15.18394539,"ECCENTRICITY":0.00029479,"INCLINATION":97.4479,"RA_OF_ASC_NODE":73.6228,"ARG_OF_PERICENTER":86.0804,"MEAN_ANOMALY":274.0767,"EPHEMERIS_TYPE":0,"CLASSIFICATION_TYPE":"U","NORAD_CAT_ID":68421,"ELEMENT_SET_NO":999,"REV_AT_EPOCH":377,"BSTAR":0.00016973167,"MEAN_MOTION_DOT":3.423e-5,"MEAN_MOTION_DDOT":0},{"OBJECT_NAME":"TRANSPORTER-16 OBJECT G","OBJECT_ID":"2026-067G","EPOCH":"2026-04-24T08:20:38.096160","MEAN_MOTION":15.18402276,"ECCENTRICITY":0.00028459,"INCLINATION":97.4444,"RA_OF_ASC_NODE":73.6115,"ARG_OF_PERICENTER":84.2159,"MEAN_ANOMALY":275.9399,"EPHEMERIS_TYPE":0,"CLASSIFICATION_TYPE":"U","NORAD_CAT_ID":68422,"ELEMENT_SET_NO":999,"REV_AT_EPOCH":377,"BSTAR":0.00028972181,"MEAN_MOTION_DOT":5.893e-5,"MEAN_MOTION_DDOT":0},{"OBJECT_NAME":"SPOQC","OBJECT_ID":"2026-067H","EPOCH":"2026-04-24T08:21:58.197600","MEAN_MOTION":15.1832918,"ECCENTRICITY":0.00026772,"INCLINATION":97.4466,"RA_OF_ASC_NODE":73.617,"ARG_OF_PERICENTER":94.6668,"MEAN_ANOMALY":265.4872,"EPHEMERIS_TYPE":0,"CLASSIFICATION_TYPE":"U","NORAD_CAT_ID":68423,"ELEMENT_SET_NO":999,"REV_AT_EPOCH":377,"BSTAR":0.0002145172,"MEAN_MOTION_DOT":4.336e-5,"MEAN_MOTION_DDOT":0},{"OBJECT_NAME":"SPACEVAN-002","OBJECT_ID":"2026-067J","EPOCH":"2026-04-24T08:34:17.366016","MEAN_MOTION":15.17820385,"ECCENTRICITY":0.00012508,"INCLINATION":97.4485,"RA_OF_ASC_NODE":73.6111,"ARG_OF_PERICENTER":161.1044,"MEAN_ANOMALY":199.0236,"EPHEMERIS_TYPE":0,"CLASSIFICATION_TYPE":"U","NORAD_CAT_ID":68424,"ELEMENT_SET_NO":999,"REV_AT_EPOCH":377,"BSTAR":0.00026100597,"MEAN_MOTION_DOT":5.213e-5,"MEAN_MOTION_DDOT":0},{"OBJECT_NAME":"ERMIS-3","OBJECT_ID":"2026-067K","EPOCH":"2026-04-24T08:23:58.369632","MEAN_MOTION":15.18242756,"ECCENTRICITY":0.00028934,"INCLINATION":97.4551,"RA_OF_ASC_NODE":73.6412,"ARG_OF_PERICENTER":121.1113,"MEAN_ANOMALY":239.0406,"EPHEMERIS_TYPE":0,"CLASSIFICATION_TYPE":"U","NORAD_CAT_ID":68425,"ELEMENT_SET_NO":999,"REV_AT_EPOCH":377,"BSTAR":0.00020798792,"MEAN_MOTION_DOT":4.191e-5,"MEAN_MOTION_DDOT":0},{"OBJECT_NAME":"TRANSPORTER-16 OBJECT L","OBJECT_ID":"2026-067L","EPOCH":"2026-04-24T06:45:07.405344","MEAN_MOTION":15.18543964,"ECCENTRICITY":0.00031786,"INCLINATION":97.4511,"RA_OF_ASC_NODE":73.5679,"ARG_OF_PERICENTER":124.6839,"MEAN_ANOMALY":235.4695,"EPHEMERIS_TYPE":0,"CLASSIFICATION_TYPE":"U","NORAD_CAT_ID":68426,"ELEMENT_SET_NO":999,"REV_AT_EPOCH":376,"BSTAR":0.00045212599,"MEAN_MOTION_DOT":9.276e-5,"MEAN_MOTION_DDOT":0},{"OBJECT_NAME":"TRANSPORTER-16 OBJECT M","OBJECT_ID":"2026-067M","EPOCH":"2026-04-24T08:21:40.168512","MEAN_MOTION":15.18424835,"ECCENTRICITY":0.0002992,"INCLINATION":97.4513,"RA_OF_ASC_NODE":73.6317,"ARG_OF_PERICENTER":124.2559,"MEAN_ANOMALY":235.8959,"EPHEMERIS_TYPE":0,"CLASSIFICATION_TYPE":"U","NORAD_CAT_ID":68427,"ELEMENT_SET_NO":999,"REV_AT_EPOCH":377,"BSTAR":0.00036074203,"MEAN_MOTION_DOT":7.36e-5,"MEAN_MOTION_DDOT":0},{"OBJECT_NAME":"OUT OF THE BOX (OOTB)","OBJECT_ID":"2026-067N","EPOCH":"2026-04-24T08:27:13.412448","MEAN_MOTION":15.1808312,"ECCENTRICITY":0.00024569,"INCLINATION":97.4534,"RA_OF_ASC_NODE":73.6333,"ARG_OF_PERICENTER":133.5115,"MEAN_ANOMALY":226.6324,"EPHEMERIS_TYPE":0,"CLASSIFICATION_TYPE":"U","NORAD_CAT_ID":68428,"ELEMENT_SET_NO":999,"REV_AT_EPOCH":377,"BSTAR":0.00015472481,"MEAN_MOTION_DOT":3.086e-5,"MEAN_MOTION_DDOT":0},{"OBJECT_NAME":"TRANSPORTER-16 OBJECT P","OBJECT_ID":"2026-067P","EPOCH":"2026-04-24T08:27:52.969824","MEAN_MOTION":15.18226294,"ECCENTRICITY":0.00023218,"INCLINATION":97.4477,"RA_OF_ASC_NODE":73.6133,"ARG_OF_PERICENTER":163.0555,"MEAN_ANOMALY":197.0757,"EPHEMERIS_TYPE":0,"CLASSIFICATION_TYPE":"U","NORAD_CAT_ID":68429,"ELEMENT_SET_NO":999,"REV_AT_EPOCH":377,"BSTAR":0.00050391292,"MEAN_MOTION_DOT":0.00010252,"MEAN_MOTION_DDOT":0},{"OBJECT_NAME":"TRANSPORTER-16 OBJECT Q","OBJECT_ID":"2026-067Q","EPOCH":"2026-04-24T08:23:26.118240","MEAN_MOTION":15.18314789,"ECCENTRICITY":0.00022837,"INCLINATION":97.4465,"RA_OF_ASC_NODE":73.6157,"ARG_OF_PERICENTER":103.2847,"MEAN_ANOMALY":256.8642,"EPHEMERIS_TYPE":0,"CLASSIFICATION_TYPE":"U","NORAD_CAT_ID":68430,"ELEMENT_SET_NO":999,"REV_AT_EPOCH":377,"BSTAR":0.00027822361,"MEAN_MOTION_DOT":5.642e-5,"MEAN_MOTION_DDOT":0},{"OBJECT_NAME":"DISCO-2","OBJECT_ID":"2026-067R","EPOCH":"2026-04-24T08:25:04.803456","MEAN_MOTION":15.18249303,"ECCENTRICITY":0.00030728,"INCLINATION":97.4566,"RA_OF_ASC_NODE":73.6451,"ARG_OF_PERICENTER":138.407,"MEAN_ANOMALY":221.7398,"EPHEMERIS_TYPE":0,"CLASSIFICATION_TYPE":"U","NORAD_CAT_ID":68431,"ELEMENT_SET_NO":999,"REV_AT_EPOCH":377,"BSTAR":0.00026990182,"MEAN_MOTION_DOT":5.46e-5,"MEAN_MOTION_DDOT":0},{"OBJECT_NAME":"TRANSPORTER-16 OBJECT S","OBJECT_ID":"2026-067S","EPOCH":"2026-04-24T08:30:26.618400","MEAN_MOTION":15.1798277,"ECCENTRICITY":0.0002195,"INCLINATION":97.4521,"RA_OF_ASC_NODE":73.6276,"ARG_OF_PERICENTER":159.3,"MEAN_ANOMALY":200.8323,"EPHEMERIS_TYPE":0,"CLASSIFICATION_TYPE":"U","NORAD_CAT_ID":68432,"ELEMENT_SET_NO":999,"REV_AT_EPOCH":377,"BSTAR":0.00024397855,"MEAN_MOTION_DOT":4.891e-5,"MEAN_MOTION_DDOT":0}]
