JACK-002                
1 68417U 26067B   26114.34323352  .00005481  00000+0  26749-3 0  9994
2 68417  97.4529  73.6427 0004102  98.1475 262.0225 15.18691837  3779
OPTISAT                 
1 68418U 26067C   26114.34458212  .00002092  00000+0  10454-3 0  9990
2 68418  97.4547  73.6471 0004113 108.3662 251.8020 15.18553779  3774
FEMTO-1                 
1 68419U 26067D   26114.34438185  .00002469  00000+0  12273-3 0  9997
2 68419  97.4504  73.6338 0003583  90.9688 269.1957 15.18569095  3773
ERMIS-2                 
1 68420U 26067E   26114.34349722  .00008098  00000+0  39297-3 0  9996
2 68420  97.4450  73.6193 0003671  83.5405 276.6247 15.18740953  3776
TRANSPORTER-16 OBJECT F 
1 68421U 26067F   26114.34723722  .00003423  00000+0  16973-3 0  9996
2 68421  97.4479  73.6228 0002947  86.0804 274.0767 15.18394539  3777
TRANSPORTER-16 OBJECT G 
1 68422U 26067G   26114.34766315  .00005893  00000+0  28972-3 0  9997
2 68422  97.4444  73.6115 0002845  84.2159 275.9399 15.18402276  3774
SPOQC                   
1 68423U 26067H   26114.34859025  .00004336  00000+0  21452-3 0  9996
2 68423  97.4466  73.6170 0002677  94.6668 265.4872 15.18329180  3775
SPACEVAN-002            
1 68424U 26067J   26114.35714544  .00005213  00000+0  26101-3 0  9995
2 68424  97.4485  73.6111 0001250 161.1044 199.0236 15.17820385  3774
ERMIS-3                 
1 68425U 26067K   26114.34998113  .00004191  00000+0  20799-3 0  9992
2 68425  97.4551  73.6412 0002893 121.1113 239.0406 15.18242756  3775
TRANSPORTER-16 OBJECT L 
1 68426U 26067L   26114.28133571  .00009276  00000+0  45213-3 0  9992
2 68426  97.4511  73.5679 0003178 124.6839 235.4695 15.18543964  3760
TRANSPORTER-16 OBJECT M 
1 68427U 26067M   26114.34838158  .00007360  00000+0  36074-3 0  9990
2 68427  97.4513  73.6317 0002992 124.2559 235.8959 15.18424835  3774
OUT OF THE BOX (OOTB)   
1 68428U 26067N   26114.35223857  .00003086  00000+0  15472-3 0  9996
2 68428  97.4534  73.6333 0002456 133.5115 226.6324 15.18083120  3774
TRANSPORTER-16 OBJECT P 
1 68429U 26067P   26114.35269641  .00010252  00000+0  50391-3 0  9990
2 68429  97.4477  73.6133 0002321 163.0555 197.0757 15.18226294  3778
TRANSPORTER-16 OBJECT Q 
1 68430U 26067Q   26114.34960785  .00005642  00000+0  27822-3 0  9998
2 68430  97.4465  73.6157 0002283 103.2847 256.8642 15.18314789  3774
DISCO-2                 
1 68431U 26067R   26114.35075004  .00005460  00000+0  26990-3 0  9994
2 68431  97.4566  73.6451 0003072 138.4070 221.7398 15.18249303  3777
TRANSPORTER-16 OBJECT S 
1 68432U 26067S   26114.35447475  .00004891  00000+0  24398-3 0  9997
2 68432  97.4521  73.6276 0002195 159.3000 200.8323 15.17982770  3771
